TIANYAN 01              
1 44881U 19093C   24068.54442921  .00001467  00000+0  18526-3 0  9990
2 44881  97.8350 147.2740 0013266 294.1346  65.8480 14.83343331228120
RS-44 & BREEZE-KM R/B   
1 44909U 19096E   24068.57026000  .00000023  00000+0  57520-4 0  9998
2 44909  82.5258 171.6227 0216314 286.5179  71.2258 12.79727197196103
BY70-2                  
1 45857U 20042B   24068.54757070  .00052308  00000+0  32294-2 0  9991
2 45857  97.9128 157.4027 0008496 206.6768 153.4024 15.09666243199274
SALSAT                  
1 46495U 20068K   24068.43232856  .00008529  00000+0  50933-3 0  9993
2 46495  97.8047  25.4084 0012664 301.5164  58.4828 15.11303321189088
RADFXSAT-2 (AO-109)     
1 47311U 21002C   24068.42044746  .00194090  00000+0  12779-2 0  9992
2 47311  60.6671  99.7101 0025476  69.7419 290.6427 15.74311020175435
UVSQ-SAT                
1 47438U 21006AB  24068.15900597  .00035779  00000+0  96751-3 0  9992
2 47438  97.3436 128.0407 0007219 210.5093 149.5733 15.37606806173163
LEDSAT                  
1 49069U 21073D   24068.45137436  .00014408  00000+0  65184-3 0  9997
2 49069  97.4490 140.5190 0019636 277.4558  82.4446 15.20843696141127
XW-3 (CAS-9)            
1 50466U 21131B   24068.54902530  .00000836  00000+0  28294-3 0  9991
2 50466  98.5307 154.1072 0005170  74.5581 285.6178 14.39405210115528
TEVEL-3                 
1 50988U 22002E   24068.57795905  .00053327  00000+0  11391-2 0  9999
2 50988  97.3941 141.3000 0003846   7.8994 352.2314 15.44673601119426
TEVEL-8                 
1 50989U 22002F   24068.54610313  .00058655  00000+0  12569-2 0  9993
2 50989  97.3960 141.3532 0003816   5.7886 354.3406 15.44555024119414
TEVEL-5                 
1 50998U 22002Q   24068.49619732  .00062732  00000+0  12400-2 0  9996
2 50998  97.3935 142.1017 0004339 355.5018   4.6192 15.46903933119478
TEVEL-6                 
1 50999U 22002R   24068.56196322  .00060763  00000+0  12035-2 0  9996
2 50999  97.3933 142.1516 0004332 355.0613   5.0593 15.46853763119486
TEVEL-1                 
1 51013U 22002AF  24068.53456745  .00055183  00000+0  11831-2 0  9992
2 51013  97.3933 141.1429 0003670   8.1897 351.9411 15.44556569119417
TEVEL-7                 
1 51062U 22002CG  24068.54010159  .00057252  00000+0  12238-2 0  9993
2 51062  97.3954 141.3190 0003794   6.4961 353.6335 15.44634824119416
TEVEL-4                 
1 51063U 22002CH  24068.56378636  .00055205  00000+0  11883-2 0  9994
2 51063  97.3953 141.2789 0003766   6.2773 353.8521 15.44438016119411
TEVEL-2                 
1 51069U 22002CP  24068.57756687  .00053784  00000+0  11477-2 0  9996
2 51069  97.3939 141.2666 0003786   6.9026 353.2274 15.44701767119421
GREENCUBE               
1 53106U 22080B   24064.84326825 -.00000003  00000+0  00000+0 0  9993
2 53106  70.1320 228.7693 0008270 127.5810 232.5602  6.42557706 38562
MONITOR-1 (RS32S)       
1 53374U 22096E   24066.71123572  .00487361  93364-4  15433-2 0  9993
2 53374  97.3799 346.2982 0006342 112.7618 247.4326 15.91200292 88604
KUZBASS-300 (RS34S)     
1 53375U 22096F   24068.58806919  .00108319  00000+0  11163-2 0  9993
2 53375  97.3934 345.2294 0003962  97.4591 262.7118 15.64468933 88680
UTMN (RS23S)            
1 53376U 22096G   24068.55185422  .00132205  00000+0  11797-2 0  9994
2 53376  97.3914 345.8458 0004128  91.3876 268.7858 15.67999822 88722
MIET-AIS (RS28S)        
1 53377U 22096H   24068.60307465  .00083142  00000+0  10148-2 0  9998
2 53377  97.3962 344.6512 0003629  92.0945 268.0728 15.60179056 88646
KAI-1 (RS26S)           
1 53378U 22096J   24068.59749629  .00048512  00000+0  78096-3 0  9998
2 53378  97.4006 343.2292 0002798  78.3112 281.8455 15.52820324 88547
ISOI (RS19S)            
1 53381U 22096M   24068.55412703  .00084367  00000+0  97267-3 0  9997
2 53381  97.3985 345.3083 0004468 106.2565 253.9184 15.61663576 88684
CUBESX-HSE-2 (RS21S)    
1 53383U 22096P   24068.59588911  .00123043  00000+0  11240-2 0  9999
2 53383  97.3919 346.1195 0005806 111.9727 248.2151 15.67438807 88747
SIREN (RS30S)           
1 53384U 22096Q   24068.58746475  .00067780  00000+0  92509-3 0  9993
2 53384  97.3983 344.3932 0004545 114.4642 245.7088 15.57256564 88626
CAS-5A (FO-118)         
1 54684U 22167C   24068.60739513  .00023155  00000+0  95996-3 0  9995
2 54684  97.5899 211.6413 0011223 138.1474 222.0622 15.23834965 68951
STRATOSAT-TK 1 (RS52S)  
1 57167U 23091B   24068.59864616  .00011803  00000+0  74983-3 0  9992
2 57167  97.6273 122.1519 0017738 103.8558 256.4646 15.08874116 38374
UMKA 1 (RS40S)          
1 57172U 23091G   24068.59164567  .00005051  00000+0  34885-3 0  9991
2 57172  97.6271 121.6997 0018934 103.8159 256.5176 15.06062102 38346
CUBESX-HSE 3 (RS42S)    
1 57178U 23091N   24068.55130402  .00007839  00000+0  52770-3 0  9993
2 57178  97.6312 121.8749 0019312  99.2178 261.1235 15.06832643 38348
MONITOR-4 (RS57S)       
1 57182U 23091S   24068.57927807  .00006155  00000+0  41884-3 0  9997
2 57182  97.6287 121.8002 0019560 100.0690 260.2745 15.06513979 38345
MONITOR-2 (RS39S)       
1 57184U 23091U   24068.56985869  .00005061  00000+0  34692-3 0  9994
2 57184  97.6294 121.9815 0015780  94.0839 266.2192 15.06384532 38359
SVYATOBOR 1 (RS60S)     
1 57187U 23091X   24068.61031195  .00006612  00000+0  43974-3 0  9993
2 57187  97.6307 122.2393 0015655  92.0092 268.2929 15.07399203 38376
VIZARD-METEO (RS38S)    
1 57189U 23091Z   24068.57678364  .00007799  00000+0  50485-3 0  9997
2 57189  97.6290 122.4127 0014268  90.4479 269.8384 15.08352175 38387
NANOZOND 1 (RS49S)      
1 57190U 23091AA  24068.58006470  .00010706  00000+0  66288-3 0  9993
2 57190  97.6267 122.6288 0012728  95.6980 264.5701 15.09905170 38404
POLYTECH-UNIVERSE 3 (R*)
1 57191U 23091AB  24068.56810614  .00005552  00000+0  38066-3 0  9991
2 57191  97.6260 121.7229 0021253 110.1647 250.1869 15.06252434 38343
UTMN 2 (RS27S)          
1 57203U 23091AP  24068.60744391  .00007118  00000+0  46509-3 0  9999
2 57203  97.6299 122.3704 0014952  90.5902 269.7039 15.08034046 38385
ARCCUBE 1 (RS25S)       
1 57205U 23091AR  24068.61263468  .00012598  00000+0  76654-3 0  9995
2 57205  97.6249 122.6766 0013079  96.7718 263.5000 15.10494916 38418
KUZGTU 1 (RS47S)        
1 57217U 23091AV  24068.48634471  .00007282  00000+0  49157-3 0  9991
2 57217  97.6287 121.7257 0019181 100.6195 259.7194 15.06755971 38330
HADES-D (SO-121)        
1 58567U 23174CY  24068.16568318  .00033790  00000+0  15774-2 0  9993
2 58567  97.4659 144.3615 0014535 222.3897 137.6216 15.19657970 18395
